QIANFAN-103             
1 66045U 25233N   26064.79099009  .00000022  00000+0  15060-4 0  9996
2 66045  88.9937  53.6435 0001916  91.5946 268.5424 13.51006129 19227
QIANFAN-104             
1 66046U 25233P   26064.79488900  .00000032  00000+0  30952-4 0  9997
2 66046  88.9941  53.5405 0002085  85.9206 274.2183 13.51010239 19271
QIANFAN-105             
1 66047U 25233Q   26064.80306083  .00000032  00000+0  31477-4 0  9994
2 66047  88.9954  53.3690 0002050  92.3374 267.8012 13.50981483 19388
QIANFAN-106             
1 66048U 25233R   26064.79917205  .00000027  00000+0  22782-4 0  9990
2 66048  88.9923  53.6148 0002383  85.8090 274.3334 13.51005179 19231
QIANFAN-107             
1 66049U 25233S   26064.80743156  .00000041  00000+0  44152-4 0  9996
2 66049  88.9939  53.6300 0001937  90.8294 269.3079 13.51003252 19235
QIANFAN-108             
1 66050U 25233T   26064.81153578  .00000030  00000+0  27863-4 0  9990
2 66050  88.9932  53.6246 0002337  85.4829 274.6589 13.51004724 19238
