[{"OBJECT_NAME":"QIANFAN-103","OBJECT_ID":"2025-233N","EPOCH":"2026-03-05T18:59:01.543776","MEAN_MOTION":13.51006129,"ECCENTRICITY":0.0001916,"INCLINATION":88.9937,"RA_OF_ASC_NODE":53.6435,"ARG_OF_PERICENTER":91.5946,"MEAN_ANOMALY":268.5424,"EPHEMERIS_TYPE":0,"CLASSIFICATION_TYPE":"U","NORAD_CAT_ID":66045,"ELEMENT_SET_NO":999,"REV_AT_EPOCH":1922,"BSTAR":1.506e-5,"MEAN_MOTION_DOT":2.2e-7,"MEAN_MOTION_DDOT":0},{"OBJECT_NAME":"QIANFAN-104","OBJECT_ID":"2025-233P","EPOCH":"2026-03-05T19:04:38.409600","MEAN_MOTION":13.51010239,"ECCENTRICITY":0.0002085,"INCLINATION":88.9941,"RA_OF_ASC_NODE":53.5405,"ARG_OF_PERICENTER":85.9206,"MEAN_ANOMALY":274.2183,"EPHEMERIS_TYPE":0,"CLASSIFICATION_TYPE":"U","NORAD_CAT_ID":66046,"ELEMENT_SET_NO":999,"REV_AT_EPOCH":1927,"BSTAR":3.0952e-5,"MEAN_MOTION_DOT":3.2e-7,"MEAN_MOTION_DDOT":0},{"OBJECT_NAME":"QIANFAN-105","OBJECT_ID":"2025-233Q","EPOCH":"2026-03-05T19:16:24.455712","MEAN_MOTION":13.50981483,"ECCENTRICITY":0.000205,"INCLINATION":88.9954,"RA_OF_ASC_NODE":53.369,"ARG_OF_PERICENTER":92.3374,"MEAN_ANOMALY":267.8012,"EPHEMERIS_TYPE":0,"CLASSIFICATION_TYPE":"U","NORAD_CAT_ID":66047,"ELEMENT_SET_NO":999,"REV_AT_EPOCH":1938,"BSTAR":3.1477e-5,"MEAN_MOTION_DOT":3.2e-7,"MEAN_MOTION_DDOT":0},{"OBJECT_NAME":"QIANFAN-106","OBJECT_ID":"2025-233R","EPOCH":"2026-03-05T19:10:48.465120","MEAN_MOTION":13.51005179,"ECCENTRICITY":0.0002383,"INCLINATION":88.9923,"RA_OF_ASC_NODE":53.6148,"ARG_OF_PERICENTER":85.809,"MEAN_ANOMALY":274.3334,"EPHEMERIS_TYPE":0,"CLASSIFICATION_TYPE":"U","NORAD_CAT_ID":66048,"ELEMENT_SET_NO":999,"REV_AT_EPOCH":1923,"BSTAR":2.2782e-5,"MEAN_MOTION_DOT":2.7e-7,"MEAN_MOTION_DDOT":0},{"OBJECT_NAME":"QIANFAN-107","OBJECT_ID":"2025-233S","EPOCH":"2026-03-05T19:22:42.086784","MEAN_MOTION":13.51003252,"ECCENTRICITY":0.0001937,"INCLINATION":88.9939,"RA_OF_ASC_NODE":53.63,"ARG_OF_PERICENTER":90.8294,"MEAN_ANOMALY":269.3079,"EPHEMERIS_TYPE":0,"CLASSIFICATION_TYPE":"U","NORAD_CAT_ID":66049,"ELEMENT_SET_NO":999,"REV_AT_EPOCH":1923,"BSTAR":4.4152e-5,"MEAN_MOTION_DOT":4.1e-7,"MEAN_MOTION_DDOT":0},{"OBJECT_NAME":"QIANFAN-108","OBJECT_ID":"2025-233T","EPOCH":"2026-03-05T19:28:36.691392","MEAN_MOTION":13.51004724,"ECCENTRICITY":0.0002337,"INCLINATION":88.9932,"RA_OF_ASC_NODE":53.6246,"ARG_OF_PERICENTER":85.4829,"MEAN_ANOMALY":274.6589,"EPHEMERIS_TYPE":0,"CLASSIFICATION_TYPE":"U","NORAD_CAT_ID":66050,"ELEMENT_SET_NO":999,"REV_AT_EPOCH":1923,"BSTAR":2.7863e-5,"MEAN_MOTION_DOT":3.0e-7,"MEAN_MOTION_DDOT":0}]
